{
  "type": "FeatureCollection",
  "features": [
    {
      "type": "Feature",
      "properties": {
        "norad_id": 66539,
        "name": "STARLINK-35697",
        "group": "last-30-days",
        "lat": 20.309076989232842,
        "lon": -155.10907327288368,
        "alt_km": 413.0712162199725,
        "timestamp": "2025-12-13T16:48:31.464969+00:00",
        "meta_object_name": "STARLINK-35697",
        "meta_object_id": "2025-265Z",
        "meta_epoch": "2025-12-12T20:00:01.999872",
        "meta_mean_motion": 15.50755011,
        "meta_eccentricity": 0.00016772,
        "meta_inclination": 43.0006,
        "meta_ra_of_asc_node": 53.3632,
        "meta_arg_of_pericenter": 257.5045,
        "meta_mean_anomaly": 86.4672,
        "meta_ephemeris_type": 0,
        "meta_classification_type": "U",
        "meta_norad_cat_id": 66539,
        "meta_element_set_no": 999,
        "meta_rev_at_epoch": 501,
        "meta_bstar": -0.0043376974,
        "meta_mean_motion_dot": -0.00248472,
        "meta_mean_motion_ddot": 0,
        "tle_line1": "1 66539U 25265Z   25346.83335648 -.00248472  00000+0 -43377-2 0  9993",
        "tle_line2": "2 66539  43.0006  53.3632 0001677 257.5045  86.4672 15.50755011  5014"
      },
      "geometry": {
        "type": "Point",
        "coordinates": [
          -155.10907327288368,
          20.309076989232842
        ]
      }
    },
    {
      "type": "Feature",
      "properties": {
        "norad_id": 66540,
        "name": "STARLINK-35818",
        "group": "last-30-days",
        "lat": 18.97351745465347,
        "lon": -153.3644276527608,
        "alt_km": 412.5961672478479,
        "timestamp": "2025-12-13T16:48:31.464979+00:00",
        "meta_object_name": "STARLINK-35818",
        "meta_object_id": "2025-265AA",
        "meta_epoch": "2025-12-12T20:00:01.999872",
        "meta_mean_motion": 15.5061765,
        "meta_eccentricity": 0.00017342,
        "meta_inclination": 43.0005,
        "meta_ra_of_asc_node": 53.3591,
        "meta_arg_of_pericenter": 266.2027,
        "meta_mean_anomaly": 79.6661,
        "meta_ephemeris_type": 0,
        "meta_classification_type": "U",
        "meta_norad_cat_id": 66540,
        "meta_element_set_no": 999,
        "meta_rev_at_epoch": 501,
        "meta_bstar": -0.00025048067,
        "meta_mean_motion_dot": -0.00015029,
        "meta_mean_motion_ddot": 0,
        "tle_line1": "1 66540U 25265AA  25346.83335648 -.00015029  00000+0 -25048-3 0  9991",
        "tle_line2": "2 66540  43.0005  53.3591 0001734 266.2027  79.6661 15.50617650  5018"
      },
      "geometry": {
        "type": "Point",
        "coordinates": [
          -153.3644276527608,
          18.97351745465347
        ]
      }
    },
    {
      "type": "Feature",
      "properties": {
        "norad_id": 66541,
        "name": "STARLINK-35796",
        "group": "last-30-days",
        "lat": 22.7211441813478,
        "lon": -158.40239607006006,
        "alt_km": 424.79701979782567,
        "timestamp": "2025-12-13T16:48:31.464989+00:00",
        "meta_object_name": "STARLINK-35796",
        "meta_object_id": "2025-265AB",
        "meta_epoch": "2025-12-12T20:00:01.999872",
        "meta_mean_motion": 15.4998802,
        "meta_eccentricity": 0.00013725,
        "meta_inclination": 43.0004,
        "meta_ra_of_asc_node": 53.353,
        "meta_arg_of_pericenter": 262.3253,
        "meta_mean_anomaly": 85.4321,
        "meta_ephemeris_type": 0,
        "meta_classification_type": "U",
        "meta_norad_cat_id": 66541,
        "meta_element_set_no": 999,
        "meta_rev_at_epoch": 501,
        "meta_bstar": -0.040134405,
        "meta_mean_motion_dot": -0.02052733,
        "meta_mean_motion_ddot": 0,
        "tle_line1": "1 66541U 25265AB  25346.83335648 -.02052733  00000+0 -40134-1 0  9998",
        "tle_line2": "2 66541  43.0004  53.3530 0001372 262.3253  85.4321 15.49988020  5015"
      },
      "geometry": {
        "type": "Point",
        "coordinates": [
          -158.40239607006006,
          22.7211441813478
        ]
      }
    },
    {
      "type": "Feature",
      "properties": {
        "norad_id": 66542,
        "name": "STARLINK-35833",
        "group": "last-30-days",
        "lat": 16.663695741947294,
        "lon": -150.45864095637825,
        "alt_km": 413.69704104265475,
        "timestamp": "2025-12-13T16:48:31.464999+00:00",
        "meta_object_name": "STARLINK-35833",
        "meta_object_id": "2025-265AC",
        "meta_epoch": "2025-12-12T20:00:01.999872",
        "meta_mean_motion": 15.50700775,
        "meta_eccentricity": 0.00016903,
        "meta_inclination": 43.0006,
        "meta_ra_of_asc_node": 53.3493,
        "meta_arg_of_pericenter": 264.8463,
        "meta_mean_anomaly": 84.9443,
        "meta_ephemeris_type": 0,
        "meta_classification_type": "U",
        "meta_norad_cat_id": 66542,
        "meta_element_set_no": 999,
        "meta_rev_at_epoch": 501,
        "meta_bstar": -0.0038567541,
        "meta_mean_motion_dot": -0.00221291,
        "meta_mean_motion_ddot": 0,
        "tle_line1": "1 66542U 25265AC  25346.83335648 -.00221291  00000+0 -38568-2 0  9993",
        "tle_line2": "2 66542  43.0006  53.3493 0001690 264.8463  84.9443 15.50700775  5019"
      },
      "geometry": {
        "type": "Point",
        "coordinates": [
          -150.45864095637825,
          16.663695741947294
        ]
      }
    },
    {
      "type": "Feature",
      "properties": {
        "norad_id": 66543,
        "name": "STARLINK-35315",
        "group": "last-30-days",
        "lat": 15.40681991936539,
        "lon": -148.92919073936042,
        "alt_km": 413.62992078040133,
        "timestamp": "2025-12-13T16:48:31.465009+00:00",
        "meta_object_name": "STARLINK-35315",
        "meta_object_id": "2025-265AD",
        "meta_epoch": "2025-12-12T20:00:01.999872",
        "meta_mean_motion": 15.50688941,
        "meta_eccentricity": 0.00014666,
        "meta_inclination": 43.0006,
        "meta_ra_of_asc_node": 53.3436,
        "meta_arg_of_pericenter": 258.6431,
        "meta_mean_anomaly": 93.0718,
        "meta_ephemeris_type": 0,
        "meta_classification_type": "U",
        "meta_norad_cat_id": 66543,
        "meta_element_set_no": 999,
        "meta_rev_at_epoch": 490,
        "meta_bstar": -0.0035543137,
        "meta_mean_motion_dot": -0.0020431,
        "meta_mean_motion_ddot": 0,
        "tle_line1": "1 66543U 25265AD  25346.83335648 -.00204310  00000+0 -35543-2 0  9997",
        "tle_line2": "2 66543  43.0006  53.3436 0001466 258.6431  93.0718 15.50688941  4907"
      },
      "geometry": {
        "type": "Point",
        "coordinates": [
          -148.92919073936042,
          15.40681991936539
        ]
      }
    },
    {
      "type": "Feature",
      "properties": {
        "norad_id": 66544,
        "name": "STARLINK-35728",
        "group": "last-30-days",
        "lat": 14.124404595271857,
        "lon": -147.39930693372636,
        "alt_km": 413.70215574807025,
        "timestamp": "2025-12-13T16:48:31.465021+00:00",
        "meta_object_name": "STARLINK-35728",
        "meta_object_id": "2025-265AE",
        "meta_epoch": "2025-12-12T20:00:01.999872",
        "meta_mean_motion": 15.506615,
        "meta_eccentricity": 0.00015219,
        "meta_inclination": 43.0004,
        "meta_ra_of_asc_node": 53.3391,
        "meta_arg_of_pericenter": 260.4958,
        "meta_mean_anomaly": 93.1502,
        "meta_ephemeris_type": 0,
        "meta_classification_type": "U",
        "meta_norad_cat_id": 66544,
        "meta_element_set_no": 999,
        "meta_rev_at_epoch": 501,
        "meta_bstar": -0.0028306255,
        "meta_mean_motion_dot": -0.00163463,
        "meta_mean_motion_ddot": 0,
        "tle_line1": "1 66544U 25265AE  25346.83335648 -.00163463  00000+0 -28306-2 0  9990",
        "tle_line2": "2 66544  43.0004  53.3391 0001521 260.4958  93.1502 15.50661500  5010"
      },
      "geometry": {
        "type": "Point",
        "coordinates": [
          -147.39930693372636,
          14.124404595271857
        ]
      }
    },
    {
      "type": "Feature",
      "properties": {
        "norad_id": 66545,
        "name": "SHIJIAN-30A",
        "group": "last-30-days",
        "lat": 47.315400497797135,
        "lon": 89.72325775444628,
        "alt_km": 516.1228720788949,
        "timestamp": "2025-12-13T16:48:31.465033+00:00",
        "meta_object_name": "SHIJIAN-30A",
        "meta_object_id": "2025-266A",
        "meta_epoch": "2025-12-12T22:54:50.664384",
        "meta_mean_motion": 15.15457203,
        "meta_eccentricity": 0.00127581,
        "meta_inclination": 51.798,
        "meta_ra_of_asc_node": 331.8549,
        "meta_arg_of_pericenter": 357.4052,
        "meta_mean_anomaly": 2.6856,
        "meta_ephemeris_type": 0,
        "meta_classification_type": "U",
        "meta_norad_cat_id": 66545,
        "meta_element_set_no": 999,
        "meta_rev_at_epoch": 361,
        "meta_bstar": 0.0010501163,
        "meta_mean_motion_dot": 0.00019897,
        "meta_mean_motion_ddot": 0,
        "tle_line1": "1 66545U 25266A   25346.95475306  .00019897  00000+0  10501-2 0  9998",
        "tle_line2": "2 66545  51.7980 331.8549 0012758 357.4052   2.6856 15.15457203  3610"
      },
      "geometry": {
        "type": "Point",
        "coordinates": [
          89.72325775444628,
          47.315400497797135
        ]
      }
    }
  ]
}